EUTELSAT 21B            
1 38992U 12062B   25273.57573286  .00000132  00000+0  00000+0 0  9998
2 38992   0.0697   3.5431 0002868 192.0185  42.8555  1.00271612 47225
EUTELSAT 70B            
1 39020U 12069A   25273.62693973 -.00000042  00000+0  00000+0 0  9991
2 39020   0.0669 350.0205 0004224 203.9208 111.8849  1.00273114 46908
EUTELSAT 117 WEST A     
1 39122U 13012A   25273.54825939 -.00000011  00000+0  00000+0 0  9999
2 39122   0.0368  46.8443 0002988 148.1147 255.1821  1.00273182 45825
EUTELSAT 7B             
1 39163U 13022A   25273.57278618  .00000050  00000+0  00000+0 0  9996
2 39163   0.0676   5.7010 0000794 341.1620 235.9108  1.00272200 45352
EXPRESS-AT1             
1 39612U 14010A   25273.65390654  .00000081  00000+0  00000+0 0  9991
2 39612   0.0181 215.8699 0000827 225.4620 219.7421  1.00270728 42213
EXPRESS-AT2             
1 39613U 14010B   25273.67054662 -.00000279  00000+0  00000+0 0  9990
2 39613   0.0169 244.0454 0000801 189.9488 316.9290  1.00270625 41894
EUTELSAT 3B             
1 39773U 14030A   25273.35793855  .00000023  00000+0  00000+0 0  9994
2 39773   0.0661 348.7792 0004615 194.9794 317.5713  1.00273238 41461
EUTELSAT 115 WEST B     
1 40425U 15010B   25272.69228529 -.00000022  00000+0  00000+0 0  9996
2 40425   0.0114 339.9179 0000308 288.6957 234.4114  1.00270158 38789
